{
    "links": {
        "self": "http://www.neowsapp.com/rest/v1/neo/3836115?api_key=iIulBulltgU6a56xZRHN4H3l9WmuAYTsLGpBGhQ2"
    },
    "id": "3836115",
    "neo_reference_id": "3836115",
    "name": "(2018 VD5)",
    "designation": "2018 VD5",
    "nasa_jpl_url": "http://ssd.jpl.nasa.gov/sbdb.cgi?sstr=3836115",
    "absolute_magnitude_h": 28.0,
    "estimated_diameter": {
        "kilometers": {
            "estimated_diameter_min": 0.0066765941,
            "estimated_diameter_max": 0.0149293183
        },
        "meters": {
            "estimated_diameter_min": 6.676594135,
            "estimated_diameter_max": 14.9293183439
        },
        "miles": {
            "estimated_diameter_min": 0.004148642,
            "estimated_diameter_max": 0.0092766455
        },
        "feet": {
            "estimated_diameter_min": 21.9048371017,
            "estimated_diameter_max": 48.9807047955
        }
    },
    "is_potentially_hazardous_asteroid": false,
    "close_approach_data": [
        {
            "close_approach_date": "2018-11-10",
            "close_approach_date_full": "2018-Nov-10 04:22",
            "epoch_date_close_approach": 1541823720000,
            "relative_velocity": {
                "kilometers_per_second": "9.390999302",
                "kilometers_per_hour": "33807.5974870887",
                "miles_per_hour": "21006.7263385746"
            },
            "miss_distance": {
                "astronomical": "0.0115009413",
                "lunar": "4.4738661657",
                "kilometers": "1720516.321475031",
                "miles": "1069079.2683001878"
            },
            "orbiting_body": "Earth"
        },
        {
            "close_approach_date": "2024-02-24",
            "close_approach_date_full": "2024-Feb-24 04:42",
            "epoch_date_close_approach": 1708749720000,
            "relative_velocity": {
                "kilometers_per_second": "21.1720510559",
                "kilometers_per_hour": "76219.3838010928",
                "miles_per_hour": "47359.7610068512"
            },
            "miss_distance": {
                "astronomical": "0.3948389369",
                "lunar": "153.5923464541",
                "kilometers": "59067063.953304403",
                "miles": "36702571.6197226414"
            },
            "orbiting_body": "Earth"
        },
        {
            "close_approach_date": "2126-01-08",
            "close_approach_date_full": "2126-Jan-08 22:50",
            "epoch_date_close_approach": 4923586200000,
            "relative_velocity": {
                "kilometers_per_second": "12.5235566834",
                "kilometers_per_hour": "45084.804060271",
                "miles_per_hour": "28013.9439451167"
            },
            "miss_distance": {
                "astronomical": "0.0798685593",
                "lunar": "31.0688695677",
                "kilometers": "11948166.351248691",
                "miles": "7424246.3037902958"
            },
            "orbiting_body": "Mars"
        }
    ],
    "orbital_data": {
        "orbit_id": "2",
        "orbit_determination_date": "2018-11-10 06:28:33",
        "first_observation_date": "2018-11-07",
        "last_observation_date": "2018-11-10",
        "data_arc_in_days": 3,
        "observations_used": 29,
        "orbit_uncertainty": "7",
        "minimum_orbit_intersection": ".00343147",
        "jupiter_tisserand_invariant": "3.819",
        "epoch_osculation": "2459000.5",
        "eccentricity": ".5047710652962158",
        "semi_major_axis": "1.869067552751125",
        "inclination": ".5797471962107538",
        "ascending_node_longitude": "250.3269146331423",
        "orbital_period": "933.3315011709376",
        "perihelion_distance": ".9256163330383487",
        "perihelion_argument": "196.1804134052811",
        "aphelion_distance": "2.812518772463902",
        "perihelion_time": "2459395.698706754611",
        "mean_anomaly": "207.5659138760782",
        "mean_motion": ".3857150428849254",
        "equinox": "J2000",
        "orbit_class": {
            "orbit_class_type": "APO",
            "orbit_class_description": "Near-Earth asteroid orbits which cross the Earth’s orbit similar to that of 1862 Apollo",
            "orbit_class_range": "a (semi-major axis) > 1.0 AU; q (perihelion) < 1.017 AU"
        }
    },
    "is_sentry_object": false
}